NORAD_CAT_ID,OBJECT_NAME,OBJECT_TYPE,EPOCH,MEAN_MOTION,ECCENTRICITY,INCLINATION,RA_OF_ASC_NODE,ARG_OF_PERICENTER,MEAN_ANOMALY,BSTAR,MEAN_MOTION_DOT,MEAN_MOTION_DDOT,TLE_LINE0,TLE_LINE1,TLE_LINE2,SEMIMAJOR_AXIS,PERIOD,APOGEE,PERIGEE,DECAYED
52341.0,STARLINK-3843,PAYLOAD,2023-11-16 22:12:56,15.08837992,0.0001366,53.219,36.8789,96.2654,263.8493,0.00010878,1.444e-05,0.0,0 STARLINK-3843,1 52341U 22045L   23320.92565103  .00001444  00000-0  10878-3 0  9999,2 52341  53.2190  36.8789 0001366  96.2654 263.8493 15.08837992 88267,6917.887,95.438,540.697,538.807,0.0
52341.0,STARLINK-3843,PAYLOAD,2023-11-17 10:56:01,15.08838542,0.0001509,53.2194,34.5008,99.6265,260.4898,4.7971e-05,4.76e-06,0.0,0 STARLINK-3843,1 52341U 22045L   23321.45557343  .00000476  00000-0  47971-4 0  9994,2 52341  53.2194  34.5008 0001509  99.6265 260.4898 15.08838542 88347,6917.885,95.438,540.794,538.706,0.0
52341.0,STARLINK-3843,PAYLOAD,2023-11-17 12:31:24,15.08838984,0.0001467,53.2192,34.2031,98.1118,262.0041,4.8549e-05,4.85e-06,0.0,0 STARLINK-3843,1 52341U 22045L   23321.52181293  .00000485  00000-0  48549-4 0  9991,2 52341  53.2192  34.2031 0001467  98.1118 262.0041 15.08838984 88351,6917.883,95.438,540.763,538.734,0.0
52341.0,STARLINK-3843,PAYLOAD,2023-11-17 22:03:43,15.08840885,0.0001477,53.2192,32.4153,88.1562,271.9599,8.7311e-05,1.102e-05,0.0,0 STARLINK-3843,1 52341U 22045L   23321.91925065  .00001102  00000-0  87311-4 0  9994,2 52341  53.2192  32.4153 0001477  88.1562 271.9599 15.08840885 88416,6917.878,95.437,540.764,538.721,0.0
52341.0,STARLINK-3843,PAYLOAD,2023-11-18 12:22:11,15.08841569,0.0001365,53.2182,29.742,90.1299,269.985,5.5936e-05,6.02e-06,0.0,0 STARLINK-3843,1 52341U 22045L   23322.51541132  .00000602  00000-0  55936-4 0  9992,2 52341  53.2182  29.7420 0001365  90.1299 269.9850 15.08841569 88504,6917.876,95.437,540.685,538.796,0.0
52341.0,STARLINK-3843,PAYLOAD,2023-11-18 13:57:34,15.08844,0.0001377,53.218,29.4438,93.039,267.076,8.4311e-05,1.054e-05,0.0,0 STARLINK-3843,1 52341U 22045L   23322.58164865  .00001054  00000-0  84311-4 0  9994,2 52341  53.2180  29.4438 0001377  93.0390 267.0760 15.08844000 88518,6917.868,95.437,540.686,538.781,0.0
52341.0,STARLINK-3843,PAYLOAD,2023-11-19 10:37:35,15.08842501,0.0001682,53.2197,25.5775,99.8612,260.257,8.6016e-05,1.081e-05,0.0,0 STARLINK-3843,1 52341U 22045L   23323.44276952  .00001081  00000-0  86016-4 0  9995,2 52341  53.2197  25.5775 0001682  99.8612 260.2570 15.08842501 88649,6917.873,95.437,540.901,538.574,0.0
52341.0,STARLINK-3843,PAYLOAD,2023-11-19 21:45:17,15.08841415,0.0001301,53.2183,23.4961,90.8552,269.2589,2.9554e-05,1.83e-06,0.0,0 STARLINK-3843,1 52341U 22045L   23323.90645030  .00000183  00000-0  29554-4 0  9999,2 52341  53.2183  23.4961 0001301  90.8552 269.2589 15.08841415 88710,6917.876,95.437,540.641,538.841,0.0
52341.0,STARLINK-3843,PAYLOAD,2023-11-20 04:06:49,15.08839473,0.0001287,53.2177,22.3073,89.2632,270.8507,5.14e-05,5.3e-06,0.0,0 STARLINK-3843,1 52341U 22045L   23324.17141069  .00000530  00000-0  51400-4 0  9993,2 52341  53.2177  22.3073 0001287  89.2632 270.8507 15.08839473 88752,6917.882,95.438,540.637,538.857,0.0
52341.0,STARLINK-3843,PAYLOAD,2023-11-20 12:03:45,15.08845935,0.000141,53.2179,20.8189,91.6669,268.4485,5.2486e-05,5.48e-06,0.0,0 STARLINK-3843,1 52341U 22045L   23324.50260691  .00000548  00000-0  52486-4 0  9997,2 52341  53.2179  20.8189 0001410  91.6669 268.4485 15.08845935 88804,6917.862,95.437,540.703,538.752,0.0
52341.0,STARLINK-3843,PAYLOAD,2023-11-21 10:19:08,15.08847721,0.0001417,53.2181,16.6563,92.2015,267.9139,7.2232e-05,8.62e-06,0.0,0 STARLINK-3843,1 52341U 22045L   23325.42996397  .00000862  00000-0  72232-4 0  9998,2 52341  53.2181  16.6563 0001417  92.2015 267.9139 15.08847721 88945,6917.857,95.437,540.702,538.742,0.0
52341.0,STARLINK-3843,PAYLOAD,2023-11-22 03:48:23,15.0884162,0.0001139,53.2175,13.3851,82.2341,277.878,4.8454e-05,4.83e-06,0.0,0 STARLINK-3843,1 52341U 22045L   23326.15860872  .00000483  00000-0  48454-4 0  9995,2 52341  53.2175  13.3851 0001139  82.2341 277.8780 15.08841620 89051,6917.875,95.437,540.528,538.952,0.0
52341.0,STARLINK-3843,PAYLOAD,2023-11-22 10:09:55,15.08850497,0.0001504,53.2182,12.1954,97.7495,262.3668,9.7005e-05,1.257e-05,0.0,0 STARLINK-3843,1 52341U 22045L   23326.42356131  .00001257  00000-0  97005-4 0  9999,2 52341  53.2182  12.1954 0001504  97.7495 262.3668 15.08850497 89097,6917.848,95.437,540.754,538.673,0.0
52341.0,STARLINK-3843,PAYLOAD,2023-11-23 03:39:11,15.08831744,0.0001353,53.2179,8.9271,76.5949,283.5194,-0.00010978,-2.034e-05,0.0,0 STARLINK-3843,1 52341U 22045L   23327.15221191 -.00002034  00000-0 -10978-3 0  9996,2 52341  53.2179   8.9271 0001353  76.5949 283.5194 15.08831744 89205,6917.906,95.438,540.707,538.835,0.0
52341.0,STARLINK-3843,PAYLOAD,2023-11-23 08:25:20,15.08835943,0.0001442,53.2178,8.0349,69.7748,290.3399,-1.1609e-05,-4.73e-06,0.0,0 STARLINK-3843,1 52341U 22045L   23327.35093428 -.00000473  00000-0 -11609-4 0  9996,2 52341  53.2178   8.0349 0001442  69.7748 290.3399 15.08835943 89232,6917.893,95.438,540.755,538.76,0.0
52341.0,STARLINK-3843,PAYLOAD,2023-11-24 11:26:54,15.0883639,0.000167,53.2191,2.9783,99.8309,260.2872,-1.9627e-05,-6e-06,0.0,0 STARLINK-3843,1 52341U 22045L   23328.47701988 -.00000600  00000-0 -19627-4 0  9997,2 52341  53.2191   2.9783 0001670  99.8309 260.2872 15.08836390 89400,6917.891,95.438,540.912,538.601,0.0
52341.0,STARLINK-3843,PAYLOAD,2023-11-25 01:45:22,15.08851162,0.0001397,53.2187,0.3018,90.4462,269.6691,-8.8203e-05,-1.692e-05,0.0,0 STARLINK-3843,1 52341U 22045L   23329.07317501 -.00001692  00000-0 -88203-4 0  9996,2 52341  53.2187   0.3018 0001397  90.4462 269.6691 15.08851162 89496,6917.846,95.437,540.678,538.745,0.0
52341.0,STARLINK-3843,PAYLOAD,2023-11-25 09:42:18,15.08843584,0.0001863,53.2176,358.8172,65.9308,294.1879,0.00029842,4.465e-05,0.0,0 STARLINK-3843,1 52341U 22045L   23329.40437852  .00004465  00000-0  29842-3 0  9997,2 52341  53.2176 358.8172 0001863  65.9308 294.1879 15.08843584 89546,6917.869,95.437,541.023,538.446,0.0
52341.0,STARLINK-3843,PAYLOAD,2023-11-26 07:57:41,15.08854673,0.0001676,53.2167,354.6509,106.3627,253.755,0.00030186,4.521e-05,0.0,0 STARLINK-3843,1 52341U 22045L   23330.33172845  .00004521  00000-0  30186-3 0  9995,2 52341  53.2167 354.6509 0001676 106.3627 253.7550 15.08854673 89683,6917.836,95.437,540.86,538.541,0.0
52341.0,STARLINK-3843,PAYLOAD,2023-11-27 07:48:30,15.08812461,0.0002499,53.2173,350.1895,139.3947,220.7232,-0.00044258,-7.32e-05,0.0,0 STARLINK-3843,1 52341U 22045L   23331.32535319 -.00007320  00000-0 -44258-3 0  9991,2 52341  53.2173 350.1895 0002499 139.3947 220.7232 15.08812461 89831,6917.965,95.439,541.558,538.101,0.0
52341.0,STARLINK-3843,PAYLOAD,2023-11-28 01:17:44,15.08839561,0.0002082,53.2193,346.921,92.0534,268.0696,6.4252e-05,7.34e-06,0.0,0 STARLINK-3843,1 52341U 22045L   23332.05398958  .00000734  00000-0  64252-4 0  9995,2 52341  53.2193 346.9210 0002082  92.0534 268.0696 15.08839561 89943,6917.882,95.438,541.187,538.306,0.0
52341.0,STARLINK-3843,PAYLOAD,2023-11-28 07:39:16,15.08863276,0.0001902,53.2183,345.7307,100.0337,260.0869,0.000354,5.354e-05,0.0,0 STARLINK-3843,1 52341U 22045L   23332.31893641  .00005354  00000-0  35400-3 0  9998,2 52341  53.2183 345.7307 0001902 100.0337 260.0869 15.08863276 89985,6917.809,95.436,540.99,538.358,0.0
52341.0,STARLINK-3843,PAYLOAD,2023-11-29 04:19:18,15.08830059,0.000192,53.2183,341.8644,102.5577,257.563,0.00072949,0.00011338,0.0,0 STARLINK-3843,1 52341U 22045L   23333.18007497  .00011338  00000-0  72949-3 0  9998,2 52341  53.2183 341.8644 0001920 102.5577 257.5630 15.08830059 90116,6917.911,95.438,541.104,538.448,0.0
52341.0,STARLINK-3843,PAYLOAD,2023-11-29 10:40:50,15.08837922,0.0001869,53.2179,340.6736,96.6389,263.4816,0.00062862,9.73e-05,0.0,0 STARLINK-3843,1 52341U 22045L   23333.44503220  .00009730  00000-0  62862-3 0  9998,2 52341  53.2179 340.6736 0001869  96.6389 263.4816 15.08837922 90158,6917.887,95.438,541.045,538.459,0.0
52341.0,STARLINK-3843,PAYLOAD,2023-11-30 04:10:04,15.08849088,0.0001943,53.2173,337.4027,99.4036,260.7176,-0.00012808,-2.327e-05,0.0,0 STARLINK-3843,1 52341U 22045L   23334.17366186 -.00002327  00000-0 -12808-3 0  9999,2 52341  53.2173 337.4027 0001943  99.4036 260.7176 15.08849088 90269,6917.853,95.437,541.062,538.373,0.0
52341.0,STARLINK-3843,PAYLOAD,2023-12-01 05:36:15,15.08837325,0.0001959,53.2182,332.6461,106.2711,253.8496,1.6018e-07,-2.86e-06,0.0,0 STARLINK-3843,1 52341U 22045L   23335.23351095 -.00000286  00000-0  16018-6 0  9991,2 52341  53.2182 332.6461 0001959 106.2711 253.8496 15.08837325 90429,6917.889,95.438,541.109,538.398,0.0
52341.0,STARLINK-3843,PAYLOAD,2023-12-02 07:02:24,15.08870583,0.0001844,53.2183,327.8921,95.0429,265.0774,0.00051411,7.91e-05,0.0,0 STARLINK-3843,1 52341U 22045L   23336.29333534  .00007910  00000-0  51411-3 0  9999,2 52341  53.2183 327.8921 0001844  95.0429 265.0774 15.08870583 90585,6917.787,95.436,540.928,538.376,0.0
52341.0,STARLINK-3843,PAYLOAD,2023-12-03 03:42:27,15.08808531,0.0001752,53.2178,324.0212,80.7891,279.33,-0.00053953,-8.857e-05,0.0,0 STARLINK-3843,1 52341U 22045L   23337.15448099 -.00008857  00000-0 -53953-3 0  9994,2 52341  53.2178 324.0212 0001752  80.7891 279.3300 15.08808531 90715,6917.977,95.44,541.054,538.63,0.0
52341.0,STARLINK-3843,PAYLOAD,2023-12-03 08:28:36,15.08809696,0.0001745,53.2172,323.1315,84.4173,275.7018,-0.00051555,-8.477e-05,0.0,0 STARLINK-3843,1 52341U 22045L   23337.35320191 -.00008477  00000-0 -51555-3 0  9992,2 52341  53.2172 323.1315 0001745  84.4173 275.7018 15.08809696 90741,6917.973,95.439,541.045,538.631,0.0
52341.0,STARLINK-3843,PAYLOAD,2023-12-03 13:14:46,15.08816401,0.0001806,53.2175,322.2397,80.686,279.4336,-0.00023626,-4.044e-05,0.0,0 STARLINK-3843,1 52341U 22045L   23337.55192355 -.00004044  00000-0 -23626-3 0  9997,2 52341  53.2175 322.2397 0001806  80.6860 279.4336 15.08816401 90772,6917.953,95.439,541.067,538.568,0.0
